[{"OBJECT_NAME":"STARLINK-4343","OBJECT_ID":"2022-077H","EPOCH":"2026-03-09T22:32:47.646240","MEAN_MOTION":15.05646071,"ECCENTRICITY":0.00014833,"INCLINATION":97.6028,"RA_OF_ASC_NODE":251.4413,"ARG_OF_PERICENTER":85.0971,"MEAN_ANOMALY":275.0426,"EPHEMERIS_TYPE":0,"CLASSIFICATION_TYPE":"U","NORAD_CAT_ID":53050,"ELEMENT_SET_NO":999,"REV_AT_EPOCH":20101,"BSTAR":1.993622e-5,"MEAN_MOTION_DOT":2.27e-6,"MEAN_MOTION_DDOT":0},{"OBJECT_NAME":"KUIPER-00163","OBJECT_ID":"2025-217R","EPOCH":"2026-03-09T22:00:01.999584","MEAN_MOTION":15.04465035,"ECCENTRICITY":0.00014571,"INCLINATION":51.8986,"RA_OF_ASC_NODE":45.7407,"ARG_OF_PERICENTER":44.6622,"MEAN_ANOMALY":115.8121,"EPHEMERIS_TYPE":0,"CLASSIFICATION_TYPE":"U","NORAD_CAT_ID":65777,"ELEMENT_SET_NO":999,"REV_AT_EPOCH":421,"BSTAR":0.0036879853,"MEAN_MOTION_DOT":0.00052296,"MEAN_MOTION_DDOT":0}]
